{"type":"FeatureCollection","features":[{"type":"Feature","id":1,"geometry":{"type":"Point","coordinates":[-74.091832301706063,4.6141575712371461]},"properties":{"objectid":1,"id_conexion":"CN006","conexion":"CONEXION NQS CENTRAL - AMERICAS","tipo_conexion":"SEMAFORICO","log_replica":" ","created_user":null,"created_date":null,"last_edited_user":null,"last_edited_date":null,"globalid":"{45E0FC0B-B148-4A68-907E-FE5198EC58B1}"}},{"type":"Feature","id":2,"geometry":{"type":"Point","coordinates":[-74.081448960692157,4.5945459230918821]},"properties":{"objectid":2,"id_conexion":"CN012","conexion":"CONEXION CALLE 6 - CARRERA 10","tipo_conexion":"GLORIETA","log_replica":" ","created_user":null,"created_date":null,"last_edited_user":null,"last_edited_date":null,"globalid":"{BBAD418B-1669-40CF-AEBE-06816728860D}"}},{"type":"Feature","id":3,"geometry":{"type":"Point","coordinates":[-74.125499684043163,4.5691353310122507]},"properties":{"objectid":3,"id_conexion":"CN003","conexion":"CONEXION TUNAL - CARACAS SUR","tipo_conexion":"SEMAFORICO","log_replica":" ","created_user":null,"created_date":null,"last_edited_user":null,"last_edited_date":null,"globalid":"{ECC69D90-4C2D-4251-9AD5-E26AC66EE908}"}},{"type":"Feature","id":4,"geometry":{"type":"Point","coordinates":[-74.060839620615425,4.6659480153918054]},"properties":{"objectid":4,"id_conexion":"CN011","conexion":"CONEXION CALLE 80 - CARACAS - AUTOPISTA NORTE","tipo_conexion":"SEMAFORICO","log_replica":" ","created_user":null,"created_date":null,"last_edited_user":null,"last_edited_date":null,"globalid":"{1FE99F2F-1154-4A67-A84D-10CAFE9DD1EF}"}},{"type":"Feature","id":5,"geometry":{"type":"Point","coordinates":[-74.070744024469647,4.6121546325741969]},"properties":{"objectid":5,"id_conexion":"CN008","conexion":"CONEXION CALLE 26 - CARRERA 10","tipo_conexion":"DEPRIMIDO","log_replica":" ","created_user":null,"created_date":null,"last_edited_user":null,"last_edited_date":null,"globalid":"{6764B2A4-D04B-4140-A928-C42D0A9C4F71}"}},{"type":"Feature","id":6,"geometry":{"type":"Point","coordinates":[-74.084712151696905,4.5970746762511538]},"properties":{"objectid":6,"id_conexion":"CN013","conexion":"CONEXION CALLE 6 - CARACAS - CARACAS SUR","tipo_conexion":"SEMAFORICO","log_replica":" ","created_user":null,"created_date":null,"last_edited_user":null,"last_edited_date":null,"globalid":"{16DC2A7D-B687-4206-8BB6-398330FD4C2B}"}},{"type":"Feature","id":7,"geometry":{"type":"Point","coordinates":[-74.097879962501224,4.6065615730546918]},"properties":{"objectid":7,"id_conexion":"CN010","conexion":"CONEXION CALLE 6 - NQS CENTRAL - NQS SUR","tipo_conexion":"GLORIETA","log_replica":" ","created_user":null,"created_date":null,"last_edited_user":null,"last_edited_date":null,"globalid":"{BEE6BD41-AAA4-4F29-A489-6BB4F9E1D141}"}},{"type":"Feature","id":8,"geometry":{"type":"Point","coordinates":[-74.058327904819066,4.6802656555789461]},"properties":{"objectid":8,"id_conexion":"CN009","conexion":"CONEXION NQS CENTRAL - AUTOPISTA NORTE","tipo_conexion":"VIADUCTO","log_replica":" ","created_user":null,"created_date":null,"last_edited_user":null,"last_edited_date":null,"globalid":"{1FA5E298-4A7E-43BE-A467-88C5FB095ABE}"}},{"type":"Feature","id":9,"geometry":{"type":"Point","coordinates":[-74.072755059772874,4.6153549258305411]},"properties":{"objectid":9,"id_conexion":"CN007","conexion":"CONEXION CALLE 26 - CARACAS","tipo_conexion":"DEPRIMIDO","log_replica":" ","created_user":null,"created_date":null,"last_edited_user":null,"last_edited_date":null,"globalid":"{A1104A10-BFB8-442A-9A58-923404683A71}"}},{"type":"Feature","id":10,"geometry":{"type":"Point","coordinates":[-74.076702045192746,4.6021082984930306]},"properties":{"objectid":10,"id_conexion":"CN001","conexion":"CONEXION CARRERA 10 - EJE AMBIENTAL","tipo_conexion":"SEMAFORICO","log_replica":" ","created_user":null,"created_date":null,"last_edited_user":null,"last_edited_date":null,"globalid":"{8D102C8B-654F-4F9D-A6F3-2C7EBEACEE94}"}},{"type":"Feature","id":11,"geometry":{"type":"Point","coordinates":[-74.068339798078767,4.674692369099569]},"properties":{"objectid":11,"id_conexion":"CN005","conexion":"CONEXION CALLE 80 - NQS CENTRAL - SUBA","tipo_conexion":"GLORIETA","log_replica":" ","created_user":null,"created_date":null,"last_edited_user":null,"last_edited_date":null,"globalid":"{DBFE9AFA-92D0-424A-8222-C10AA48DDC0C}"}},{"type":"Feature","id":12,"geometry":{"type":"Point","coordinates":[-74.079759490592025,4.6317029199624615]},"properties":{"objectid":12,"id_conexion":"CN004","conexion":"CONEXION CALLE 26 - NQS CENTRAL","tipo_conexion":"SEMAFORICO","log_replica":" ","created_user":null,"created_date":null,"last_edited_user":null,"last_edited_date":null,"globalid":"{957C3D37-52E7-43B6-B399-6AF390196E46}"}},{"type":"Feature","id":13,"geometry":{"type":"Point","coordinates":[-74.079863919228131,4.6036551958714043]},"properties":{"objectid":13,"id_conexion":"CN002","conexion":"CONEXION CARACAS - AMERICAS","tipo_conexion":"SEMAFORICO","log_replica":" ","created_user":null,"created_date":null,"last_edited_user":null,"last_edited_date":null,"globalid":"{5E96D06E-6F14-4CAD-A906-F6136865035B}"}}]}