{"type":"FeatureCollection","features":[{"type":"Feature","id":1,"geometry":{"type":"Polygon","coordinates":[[[-74.120104816965224,4.5331636668572433],[-74.120178580019569,4.5331255954690697],[-74.120249963248057,4.5328579057047476],[-74.120317778038427,4.5326366164183316],[-74.120424853821774,4.5323760649699079],[-74.120524791120886,4.5322868350321235],[-74.120621159717501,4.532208313258006],[-74.120760358128663,4.5320976677277773],[-74.120885280103067,4.5320013003140556],[-74.120920971285599,4.5319085012367841],[-74.120935248185276,4.5318121332190753],[-74.120935248562134,4.5316372427935594],[-74.120071504178782,4.5313088768087262],[-74.120000120216972,4.5305593469718399],[-74.11998941271581,4.5305200850625065],[-74.119957290203445,4.5300775055241633],[-74.119889475266945,4.5300775058861387],[-74.119875198135162,4.5299704297831642],[-74.119960859153039,4.5299632915398931],[-74.12079961922862,4.5298633541406161],[-74.120910264466332,4.5297812630535192],[-74.120960232428743,4.529713448364606],[-74.120956663570638,4.5295849575177458],[-74.12088528020054,4.5294172054900042],[-74.120642574473962,4.5289960409426762],[-74.120478391975894,4.5288389960362556],[-74.120414146750718,4.5287676125099852],[-74.120189287451709,4.5284142620468133],[-74.120107195901625,4.528375001633556],[-74.120000120555247,4.5283571549936523],[-74.119896613744061,4.5283571556425866],[-74.11951827943399,4.5283571551131878],[-74.11935766613648,4.5283642940269919],[-74.119264867161462,4.5284106933424741],[-74.119218467688256,4.5284499540402186],[-74.119197052358473,4.5285677374733746],[-74.119182775781397,4.5289246569235182],[-74.119182775209197,4.5294814503366636],[-74.119232744319106,4.5296670485726143],[-74.119314835481489,4.5297919700934619],[-74.11937908073638,4.5298954767074191],[-74.119411203588029,4.5301310437536104],[-74.119457602979608,4.53037017928997],[-74.119536125574896,4.5305058089544676],[-74.119618216941078,4.5306628534277076],[-74.119668185160592,4.5311875245243245],[-74.119700308613773,4.5315551510220899],[-74.119732430807929,4.5318228401273126],[-74.119753845900718,4.5321976058845168],[-74.119795486546352,4.5324641052541388],[-74.119840696548323,4.5326068727542106],[-74.120023915018621,4.5329661715810241],[-74.120104816965224,4.5331636668572433]]]},"properties":{"objectid":1,"id_patio_troncal":"19","id_anterior_patio_troncal":"0","nombre_patio_troncal":"USME","cod_patio_troncal":" ","area_patio_troncal":51141.772686599994,"perimetro_patio_troncal":1413.1109361699998,"zona_sitp_patio_troncal":null,"tipo_patio_troncal":"TRONCAL","direccion_patio_troncal":"Calle 67A Bis Sur # 2A Este - 31  (a) 2A Este 99","coordenada_x_patio_troncal":995283.87066477002,"coordenada_y_patio_troncal":992712.57691203,"latitud_patio_troncal":4.5302981299999994,"longitud_patio_troncal":-74.120005509999999,"operador_patio_troncal":"SOMOS U SAS","capacidad_patio_troncal":"0","componente_patio_troncal":"TRONCAL","estado_actual":1,"st_area(shape)":51141.772686554999,"st_length(shape)":1413.1109361704086}},{"type":"Feature","id":2,"geometry":{"type":"Polygon","coordinates":[[[-74.181602818066821,4.6347936242829615],[-74.181335427600558,4.6342357187078393],[-74.181283138599227,4.6340817316547573],[-74.181302152515357,4.6340106610483893],[-74.180945633513815,4.6336505687406886],[-74.180898097243684,4.6336789972151911],[-74.180831546727987,4.6336647830742335],[-74.180712706699225,4.6335415928896149],[-74.179742974161556,4.6340153989935242],[-74.179933117987019,4.6344797285869292],[-74.180116130971228,4.6346408218240853],[-74.180422737754895,4.6353764043561396],[-74.181602818066821,4.6347936242829615]]]},"properties":{"objectid":2,"id_patio_troncal":"7","id_anterior_patio_troncal":"0","nombre_patio_troncal":"BRASIL","cod_patio_troncal":" ","area_patio_troncal":23979.62734848,"perimetro_patio_troncal":619.67504210999994,"zona_sitp_patio_troncal":null,"tipo_patio_troncal":"ALIMENTACION","direccion_patio_troncal":"Calle 49 Sur # 89 - 65","coordenada_x_patio_troncal":988552.75728006999,"coordenada_y_patio_troncal":1004226.90898232,"latitud_patio_troncal":4.6344172800000001,"longitud_patio_troncal":-74.180675249999993,"operador_patio_troncal":"MASIVO CAPITAL KENNEDY","capacidad_patio_troncal":"212","componente_patio_troncal":"ALIMENTACION","estado_actual":1,"st_area(shape)":23979.627348409998,"st_length(shape)":619.67504210999778}},{"type":"Feature","id":3,"geometry":{"type":"Polygon","coordinates":[[[-74.077467881802065,4.7587900583835427],[-74.077815283013734,4.7588186118088149],[-74.078407769123146,4.75883050925618],[-74.078881281876448,4.7588257500110833],[-74.079361932667069,4.7580881174338252],[-74.079369071456242,4.7579739034411119],[-74.079202509205061,4.7577692691446742],[-74.079035946371206,4.7576645733911631],[-74.078895558364195,4.7575170468519516],[-74.078531501246317,4.7578002022901114],[-74.078243586003595,4.7580167335428447],[-74.07793663569791,4.7582427825170415],[-74.077734381147238,4.7583903085423458],[-74.077655859187175,4.7584688313478214],[-74.077567819313145,4.7585854245646377],[-74.077467881802065,4.7587900583835427]]]},"properties":{"objectid":3,"id_patio_troncal":"18","id_anterior_patio_troncal":"0","nombre_patio_troncal":"SALITRE","cod_patio_troncal":" ","area_patio_troncal":17222.007293580002,"perimetro_patio_troncal":555.30684790999999,"zona_sitp_patio_troncal":null,"tipo_patio_troncal":"ALIMENTACION","direccion_patio_troncal":"Cra 92 # 165 - 49","coordenada_x_patio_troncal":999886.19550004008,"coordenada_y_patio_troncal":1017926.39924751,"latitud_patio_troncal":4.7583104700000005,"longitud_patio_troncal":-74.078533750000005,"operador_patio_troncal":"MASIVO CAPITAL NORTE","capacidad_patio_troncal":"0","componente_patio_troncal":"ALIMENTACION","estado_actual":1,"st_area(shape)":17222.007293570001,"st_length(shape)":555.30684791163844}},{"type":"Feature","id":4,"geometry":{"type":"Polygon","coordinates":[[[-74.093672130401913,4.7461345383068387],[-74.093624541058389,4.7460655335403414],[-74.093534121149986,4.7460203238991907],[-74.09325096609281,4.7459322834416877],[-74.093143889539334,4.7459275246976853],[-74.093001122270977,4.7459465608722029],[-74.092922600113667,4.7459560786556985],[-74.092629926429197,4.7458632796905142],[-74.09214451598244,4.7456848196849837],[-74.091789976337012,4.7455658464966168],[-74.09169479778727,4.7455444317495683],[-74.09159724050464,4.7455682260725087],[-74.091516339022832,4.7456824408257816],[-74.091366432889274,4.7460679129714798],[-74.09129504837162,4.7462392345109521],[-74.091276013324574,4.7463510687631896],[-74.091309325165483,4.7464533859443616],[-74.091380709282575,4.7465319082264879],[-74.091430678328649,4.7465676002281922],[-74.091735249035452,4.7466794342180538],[-74.092558542288685,4.746993523359369],[-74.092913081998077,4.7471172555144125],[-74.093200997033875,4.7472148129272762],[-74.093400871446988,4.7472933356810403],[-74.09350794698851,4.7473623399878813],[-74.093512706781439,4.7474218261119576],[-74.093484153111177,4.747559834909576],[-74.09337469772656,4.7478786826000823],[-74.093322349877553,4.748047624668974],[-74.093255724392804,4.7482332225895227],[-74.093198617521452,4.7483783697203643],[-74.093165305309242,4.7484759280436517],[-74.093151028558609,4.7485711057971427],[-74.093172443717648,4.7486496281147277],[-74.09322241179774,4.7487114942515287],[-74.093279518886519,4.7487733602214073],[-74.093579331337651,4.7489161280356162],[-74.093888661568357,4.7490541370280974],[-74.094124228285111,4.749144555782939],[-74.094186094197127,4.7491802481989884],[-74.094305066568865,4.7492088015245475],[-74.094535874141314,4.748604418429613],[-74.094266995655985,4.7483569550164928],[-74.094202749806612,4.7481570802637751],[-74.094012392812388,4.7474717954023564],[-74.09385296934343,4.7468364790474675],[-74.093672130401913,4.7461345383068387]]]},"properties":{"objectid":4,"id_patio_troncal":"16","id_anterior_patio_troncal":"0","nombre_patio_troncal":"SUBA","cod_patio_troncal":" ","area_patio_troncal":54161.905284450004,"perimetro_patio_troncal":1274.3329869500001,"zona_sitp_patio_troncal":null,"tipo_patio_troncal":"TRONCAL","direccion_patio_troncal":"Av Cra 145 # 103B - 03","coordenada_x_patio_troncal":998274.63636772998,"coordenada_y_patio_troncal":1016686.5833848601,"latitud_patio_troncal":4.7470985599999995,"longitud_patio_troncal":-74.093060120000004,"operador_patio_troncal":"TRANSMASIVO SI18 SUBA SAS","capacidad_patio_troncal":"0","componente_patio_troncal":"TRONCAL","estado_actual":1,"st_area(shape)":54161.905284494998,"st_length(shape)":1274.3329869483578}},{"type":"Feature","id":5,"geometry":{"type":"Polygon","coordinates":[[[-74.146262222316054,4.5802325408719513],[-74.146501875288166,4.5802548189985419],[-74.146613463588182,4.5802600713116801],[-74.146645890005018,4.5802548050874101],[-74.146723619565307,4.5802428335336849],[-74.146800394734356,4.580230384587888],[-74.14692441915598,4.5802068848905213],[-74.147035122242428,4.5802468148342008],[-74.147110375005582,4.5802683581458039],[-74.147348817913354,4.5803389181688638],[-74.147423932169986,4.5804094941016968],[-74.147575352079187,4.5805506467301331],[-74.147588471169385,4.5805949096536107],[-74.147598016677534,4.5806810443296833],[-74.147598019822297,4.5807133454098334],[-74.147587294870647,4.5807588070736021],[-74.147456162131874,4.5808401699141026],[-74.147511013086557,4.5809430488984786],[-74.147644534338326,4.5809119311346223],[-74.147866288147384,4.5809956530530291],[-74.148474319630537,4.5811893985255585],[-74.148722267792508,4.5809333589439998],[-74.148820014180245,4.5808113233021182],[-74.1488676802622,4.5805959795226245],[-74.148457555169472,4.5804404969561556],[-74.148807988530166,4.5797609466262124],[-74.148591005657508,4.5796939732605759],[-74.148519471581906,4.5796676613036071],[-74.148281027455837,4.5795743709093113],[-74.148121268703306,4.5795121782511909],[-74.148006813245885,4.5794451945745722],[-74.14794187172501,4.5793956772910445],[-74.14787209785672,4.5793526118309495],[-74.147844676311735,4.5793364644398906],[-74.14776181612919,4.5792984888132509],[-74.147476872834631,4.5791886203633814],[-74.147251923277523,4.5791059892214205],[-74.14655685802353,4.5788392749891029],[-74.145744955714676,4.5785271106105982],[-74.145481478687188,4.5784625344343892],[-74.145368269878688,4.5789781634071804],[-74.145452926769991,4.5791013776862233],[-74.14540216840787,4.5794088391904504],[-74.145393671196729,4.5794464728976028],[-74.145340634998419,4.5796526970004754],[-74.145325858201275,4.5797168212830135],[-74.145307746386308,4.5798120514651268],[-74.145287733450246,4.5799781038428575],[-74.145282493262144,4.5800369641303256],[-74.145278681208538,4.5800647186988233],[-74.145282498397094,4.5800915166875038],[-74.145293468783706,4.580114963526011],[-74.145305868792292,4.5801326678542731],[-74.145333569571349,4.5801572697192476],[-74.145377403118545,4.5801719009281552],[-74.145428191152021,4.580178356502878],[-74.145612026254923,4.5801905408839598],[-74.146205722814358,4.5802279614462629],[-74.146262222316054,4.5802325408719513]]]},"properties":{"objectid":5,"id_patio_troncal":"15","id_anterior_patio_troncal":"0","nombre_patio_troncal":"TUNAL","cod_patio_troncal":" ","area_patio_troncal":60311.828473729998,"perimetro_patio_troncal":1234.3653475799999,"zona_sitp_patio_troncal":null,"tipo_patio_troncal":"TRONCAL","direccion_patio_troncal":"Calle 58 A Sur # 19C - 81\u00A0","coordenada_x_patio_troncal":992378.56617916003,"coordenada_y_patio_troncal":998155.46338563995,"latitud_patio_troncal":4.5795167600000006,"longitud_patio_troncal":-74.14619021,"operador_patio_troncal":"BOGOTA MOVIL","capacidad_patio_troncal":"0","componente_patio_troncal":"TRONCAL","estado_actual":1,"st_area(shape)":60311.828473679998,"st_length(shape)":1234.3653475738129}},{"type":"Feature","id":6,"geometry":{"type":"Polygon","coordinates":[[[-74.138965500806819,4.5472653750922225],[-74.137311249766086,4.547670527633799],[-74.137323134081086,4.5477818854221015],[-74.137301742565043,4.548082788841521],[-74.137228061974525,4.5484618788807349],[-74.137118729144561,4.5489215252508881],[-74.137121106044759,4.5489618031046746],[-74.13914613757197,4.5480425098990125],[-74.138965500806819,4.5472653750922225]]]},"properties":{"objectid":6,"id_patio_troncal":"3","id_anterior_patio_troncal":"0","nombre_patio_troncal":"JARDIN","cod_patio_troncal":" ","area_patio_troncal":22877.20922466,"perimetro_patio_troncal":669.02202259000001,"zona_sitp_patio_troncal":null,"tipo_patio_troncal":"ALIMENTACION","direccion_patio_troncal":"Cra 17 # 70 -31 sur","coordenada_x_patio_troncal":993276.57963346003,"coordenada_y_patio_troncal":994672.40404209995,"latitud_patio_troncal":4.5480197899999997,"longitud_patio_troncal":-74.13809492,"operador_patio_troncal":"SUMA","capacidad_patio_troncal":"192","componente_patio_troncal":"ALIMENTACION","estado_actual":1,"st_area(shape)":22877.209224769998,"st_length(shape)":669.02202259071066}},{"type":"Feature","id":7,"geometry":{"type":"Polygon","coordinates":[[[-74.175046780006397,4.6304437981889004],[-74.174661738370048,4.6306463512866252],[-74.173652788484986,4.631062116816282],[-74.172954009847714,4.6313428484008829],[-74.17276505399002,4.6314387939369146],[-74.173182182244986,4.6322205751589562],[-74.173556527645218,4.6329277320067339],[-74.173991481320854,4.6337414938584782],[-74.17402000305465,4.6337628144735774],[-74.174055655695668,4.6337663680601713],[-74.174982606081272,4.6332901936323925],[-74.176091382269732,4.6327251795952806],[-74.176127034040732,4.632696751289771],[-74.176144860208524,4.6326683227567766],[-74.176151990632292,4.6326150199863481],[-74.175684949987911,4.6316946495240856],[-74.175046780006397,4.6304437981889004]]]},"properties":{"objectid":7,"id_patio_troncal":"4","id_anterior_patio_troncal":"0","nombre_patio_troncal":"AMERICAS","cod_patio_troncal":" ","area_patio_troncal":77590.430563390008,"perimetro_patio_troncal":1110.7706545400001,"zona_sitp_patio_troncal":null,"tipo_patio_troncal":"TRONCAL","direccion_patio_troncal":"Cra 86 Bis # 45 - 57 Sur","coordenada_x_patio_troncal":989239.08771390002,"coordenada_y_patio_troncal":1003969.8394397401,"latitud_patio_troncal":4.6320934499999993,"longitud_patio_troncal":-74.174489440000002,"operador_patio_troncal":"SOMOS K","capacidad_patio_troncal":"0","componente_patio_troncal":"TRONCAL","estado_actual":1,"st_area(shape)":77590.430563254995,"st_length(shape)":1110.7706545433689}},{"type":"Feature","id":8,"geometry":{"type":"Polygon","coordinates":[[[-74.183964565808736,4.6080280066016748],[-74.183673407779466,4.6075571446352699],[-74.183403047511689,4.6071366268599556],[-74.18305544123595,4.6072758119774404],[-74.182826673801245,4.6074120367071218],[-74.182998992137115,4.6077022528590144],[-74.183120802910111,4.607891782529915],[-74.183417902286749,4.6083863349336873],[-74.183964565808736,4.6080280066016748]]]},"properties":{"objectid":8,"id_patio_troncal":"14","id_anterior_patio_troncal":"0","nombre_patio_troncal":"BOSA","cod_patio_troncal":" ","area_patio_troncal":8791.8676176299996,"perimetro_patio_troncal":386.26919344999999,"zona_sitp_patio_troncal":null,"tipo_patio_troncal":"ALIMENTACION","direccion_patio_troncal":"Calle 63 Sur # 80 - 22","coordenada_x_patio_troncal":988250.19218936004,"coordenada_y_patio_troncal":1001276.8172952801,"latitud_patio_troncal":4.60773893,"longitud_patio_troncal":-74.18339813,"operador_patio_troncal":"ETIB","capacidad_patio_troncal":"0","componente_patio_troncal":"ALIMENTACION","estado_actual":1,"st_area(shape)":8791.8676175950004,"st_length(shape)":386.26919345364394}},{"type":"Feature","id":9,"geometry":{"type":"Polygon","coordinates":[[[-74.109047964147578,4.7078588864389772],[-74.108906306047956,4.7079672976916456],[-74.108709032142201,4.7081023179665342],[-74.1084095557475,4.7083012954055645],[-74.108098195471484,4.7085097476748698],[-74.108808857544389,4.7091848481072374],[-74.109141609163004,4.7085334354845969],[-74.109151116474223,4.7084339466868048],[-74.109159673025417,4.7081384021149741],[-74.109047964147578,4.7078588864389772]]]},"properties":{"objectid":9,"id_patio_troncal":"9","id_anterior_patio_troncal":"0","nombre_patio_troncal":"BACHUE","cod_patio_troncal":" ","area_patio_troncal":8759.4061286300002,"perimetro_patio_troncal":394.21481875000001,"zona_sitp_patio_troncal":null,"tipo_patio_troncal":"ALIMENTACION","direccion_patio_troncal":"Transv 94L #80-53","coordenada_x_patio_troncal":996535.17225188005,"coordenada_y_patio_troncal":1012419.55132928,"latitud_patio_troncal":4.7085109300000001,"longitud_patio_troncal":-74.108737680000004,"operador_patio_troncal":"ESTE ES MI BUS CALLE 80","capacidad_patio_troncal":"0","componente_patio_troncal":"ALIMENTACION","estado_actual":1,"st_area(shape)":8759.4061287000004,"st_length(shape)":394.21481875126051}},{"type":"Feature","id":10,"geometry":{"type":"Polygon","coordinates":[[[-74.110566908521449,4.7075840500331481],[-74.110438604000805,4.7078649713076368],[-74.110665136268508,4.7080833672450693],[-74.111252204910372,4.7086542423097137],[-74.111891563314103,4.7092701244073263],[-74.112067446634867,4.7090853601191958],[-74.112017534067363,4.7088271636407812],[-74.111934346145517,4.7083155075139391],[-74.111851157878604,4.7078678085621339],[-74.111722811233633,4.70714769983487],[-74.111663390551612,4.706811332671081],[-74.11163962258702,4.7065199729777349],[-74.111649129775657,4.7063517892760141],[-74.111356784366535,4.7063423137447655],[-74.111203588723654,4.7063709434365855],[-74.110566908521449,4.7075840500331481]]]},"properties":{"objectid":10,"id_patio_troncal":"8","id_anterior_patio_troncal":"0","nombre_patio_troncal":"PATIO 80","cod_patio_troncal":" ","area_patio_troncal":30574.819375110001,"perimetro_patio_troncal":794.06718570999999,"zona_sitp_patio_troncal":null,"tipo_patio_troncal":"TRONCAL","direccion_patio_troncal":"AV 80 # 96-91","coordenada_x_patio_troncal":996246.46294727002,"coordenada_y_patio_troncal":1012336.2499525701,"latitud_patio_troncal":4.7077574999999996,"longitud_patio_troncal":-74.111339889999996,"operador_patio_troncal":"SI18 CALLE 80 SAS","capacidad_patio_troncal":"0","componente_patio_troncal":"TRONCAL","estado_actual":1,"st_area(shape)":30574.819375125,"st_length(shape)":794.06718571266765}},{"type":"Feature","id":11,"geometry":{"type":"Polygon","coordinates":[[[-74.127554507160852,4.4666351398313386],[-74.127344220914921,4.466749414239171],[-74.127079559974305,4.4669045934867899],[-74.127073520624364,4.4669355838335694],[-74.12705565056612,4.4670719673571115],[-74.127024667192373,4.4671999769134088],[-74.127000834834774,4.467320808444633],[-74.126928138559975,4.4675505100217219],[-74.12687690394003,4.4678603640197698],[-74.126826576222612,4.4679754576469675],[-74.127390533457913,4.4681944253413564],[-74.127592431061132,4.4683131579474979],[-74.127625128224707,4.4683322267901477],[-74.127655640476817,4.4682996847714849],[-74.127688043291499,4.4680049060261737],[-74.127659657887136,4.467990165842167],[-74.127417590708589,4.4677822760521595],[-74.127799925794548,4.4673449751952523],[-74.127852728800548,4.4673009712663925],[-74.1280662384262,4.4670464220107089],[-74.128110179198856,4.4669946922154562],[-74.12825680288941,4.4671167075014626],[-74.128257997424257,4.4671525978341329],[-74.128286607636568,4.4671872898604521],[-74.128034541157703,4.4673389724998476],[-74.128066691164676,4.4674472682180815],[-74.128067531641562,4.4675497730594227],[-74.128164107497426,4.46769840125208],[-74.128177463772488,4.4677150207161525],[-74.128196393003009,4.4677324527728475],[-74.128216320400753,4.4677734982076078],[-74.128228241174554,4.4677878533677253],[-74.128252081818914,4.4678034041097963],[-74.128281219070885,4.4678105733018532],[-74.128402279015191,4.4678835484713728],[-74.128434425820814,4.4679312451850057],[-74.128474000747957,4.4677046737920474],[-74.128362463451396,4.4676911701845263],[-74.128370798871089,4.4675727325031884],[-74.128391093862774,4.4675740767136789],[-74.128484689188298,4.4675795241273661],[-74.128488202294903,4.4675530437598541],[-74.128515017174053,4.4673848982664159],[-74.128534078201909,4.4672233918804798],[-74.128503406430312,4.4672020241703478],[-74.128190366093492,4.4669334456242158],[-74.128325450187333,4.4668058854890624],[-74.12843033986023,4.4667197422974745],[-74.128517352131936,4.4666730790690314],[-74.128507812943326,4.4666216369241534],[-74.128501849468876,4.4665761765677363],[-74.128499461452165,4.4665199491994905],[-74.128494691525162,4.4664828636122413],[-74.128494689707836,4.4664565444563307],[-74.128498261950355,4.4664122798438584],[-74.128497068148889,4.4663871562740116],[-74.128419395044844,4.4664066415013721],[-74.128127728552229,4.4664809474815454],[-74.127986895224126,4.4665064977347244],[-74.127832357155512,4.4665450294258351],[-74.127779470109715,4.4665582161449411],[-74.12760381162694,4.4666074762095116],[-74.127554507160852,4.4666351398313386]]]},"properties":{"objectid":11,"id_patio_troncal":" ","id_anterior_patio_troncal":" ","nombre_patio_troncal":"USME PUEBLO","cod_patio_troncal":" ","area_patio_troncal":20472.513286310001,"perimetro_patio_troncal":960.03644618999999,"zona_sitp_patio_troncal":null,"tipo_patio_troncal":"ALIMENTACION","direccion_patio_troncal":"Cra 14 # 139-64 Sur","coordenada_x_patio_troncal":994432.80104397994,"coordenada_y_patio_troncal":985744.45456790994,"latitud_patio_troncal":4.4672839800000004,"longitud_patio_troncal":-74.127670289999998,"operador_patio_troncal":null,"capacidad_patio_troncal":null,"componente_patio_troncal":null,"estado_actual":null,"st_area(shape)":20472.513286320001,"st_length(shape)":960.0364461863669}},{"type":"Feature","id":12,"geometry":{"type":"Polygon","coordinates":[[[-74.166588965594002,4.6411738537992218],[-74.166325141227546,4.6408587760793614],[-74.166056563334152,4.6405318533068733],[-74.165595464403893,4.6409014179805403],[-74.165398190357507,4.6410506653115755],[-74.165654884564688,4.641379957297211],[-74.165921085695118,4.6417116172801505],[-74.166313256691339,4.6413870640071959],[-74.166588965594002,4.6411738537992218]]]},"properties":{"objectid":12,"id_patio_troncal":"6","id_anterior_patio_troncal":"0","nombre_patio_troncal":"CALANDAIMA II","cod_patio_troncal":" ","area_patio_troncal":8665.3326625299997,"perimetro_patio_troncal":373.60045119999995,"zona_sitp_patio_troncal":null,"tipo_patio_troncal":"ALIMENTACION","direccion_patio_troncal":"Cra 89 # 34 - 21 Sur","coordenada_x_patio_troncal":990182.25785607006,"coordenada_y_patio_troncal":1004967.7817416701,"latitud_patio_troncal":4.6411190499999995,"longitud_patio_troncal":-74.165990359999995,"operador_patio_troncal":"ESTE ES MI BUS TINTAL","capacidad_patio_troncal":"0","componente_patio_troncal":"ALIMENTACION","estado_actual":1,"st_area(shape)":8665.3326625650006,"st_length(shape)":373.60045120568287}},{"type":"Feature","id":13,"geometry":{"type":"Polygon","coordinates":[[[-74.09765077673238,4.5645158164931701],[-74.0978623120305,4.564328645087115],[-74.097733964784069,4.5641864899795248],[-74.09765553058304,4.5640727650151662],[-74.097588980051412,4.5639637792080618],[-74.097489154857229,4.5637718689180353],[-74.097451125697447,4.5636889445720961],[-74.097382198500299,4.5635657430268131],[-74.097327532146352,4.5634780805397783],[-74.097184924023495,4.5632885397774938],[-74.096766607792389,4.5628075792501805],[-74.096662028894585,4.5626985925629659],[-74.095996525941416,4.5632838011327408],[-74.095863424785676,4.5636036515454839],[-74.095739831234397,4.563838208796632],[-74.095433224828554,4.5643570763432502],[-74.09530487779567,4.5645703099593575],[-74.095231197288555,4.5646674493523012],[-74.095052937094408,4.564885420939107],[-74.094839025588271,4.5651531467754243],[-74.094810503864778,4.5651839474231544],[-74.094815257635702,4.5652289630508207],[-74.094834271735024,4.565255024860889],[-74.095335776402479,4.5658046922273723],[-74.09530487809279,4.5658260157647179],[-74.095335775945216,4.5658591851573904],[-74.095338153170971,4.5658947245554122],[-74.095316761503554,4.5659302627353489],[-74.095121863910535,4.5661126952887523],[-74.095090966042818,4.5661529731937831],[-74.095083835674984,4.5662098346909312],[-74.095102850271701,4.566254850869969],[-74.095254965001914,4.5664183295269805],[-74.095288239720674,4.5664349137825084],[-74.09559960088194,4.5663188203846135],[-74.095737454725054,4.566188511882852],[-74.096312639940777,4.565688598850941],[-74.096951998212134,4.5651176083197473],[-74.09765077673238,4.5645158164931701]]]},"properties":{"objectid":13,"id_patio_troncal":"10","id_anterior_patio_troncal":"0","nombre_patio_troncal":"20 DE JULIO","cod_patio_troncal":" ","area_patio_troncal":66134.792820889998,"perimetro_patio_troncal":1127.9802608,"zona_sitp_patio_troncal":null,"tipo_patio_troncal":"TRONCAL Y ALIMENTACION","direccion_patio_troncal":"Calle 32 Sur # 3C - 08","coordenada_x_patio_troncal":997916.38668368,"coordenada_y_patio_troncal":996499.92732294998,"latitud_patio_troncal":4.5645486100000001,"longitud_patio_troncal":-74.096284490000002,"operador_patio_troncal":"CONSORCIO EXPRESS SAN CRISTOBAL","capacidad_patio_troncal":"0","componente_patio_troncal":"TRONCAL Y ALIMENTACION","estado_actual":1,"st_area(shape)":66134.792820980001,"st_length(shape)":1127.9802607983288}},{"type":"Feature","id":14,"geometry":{"type":"Polygon","coordinates":[[[-74.156835777655786,4.5977285462109636],[-74.156662272165647,4.5969917407331664],[-74.15654818550837,4.596574769592813],[-74.156472128130488,4.5965889847410413],[-74.156493519099627,4.5966647970325623],[-74.156334273673522,4.5966813816336174],[-74.15633427407387,4.5966932271942191],[-74.156011029777517,4.5967216573234149],[-74.156022913612148,4.5967856242120586],[-74.156011029567665,4.5967856237129867],[-74.156258216008197,4.5979654609148266],[-74.156835777655786,4.5977285462109636]]]},"properties":{"objectid":14,"id_patio_troncal":"13","id_anterior_patio_troncal":"0","nombre_patio_troncal":"SUR","cod_patio_troncal":" ","area_patio_troncal":8765.2615122900006,"perimetro_patio_troncal":414.98624274000002,"zona_sitp_patio_troncal":null,"tipo_patio_troncal":"TRONCAL","direccion_patio_troncal":"Calle 57Q Sur # 65 - 64","coordenada_x_patio_troncal":991244.25831422,"coordenada_y_patio_troncal":1000118.96365475,"latitud_patio_troncal":4.5972718500000003,"longitud_patio_troncal":-74.15641423000001,"operador_patio_troncal":"CONEXION MOVIL","capacidad_patio_troncal":"83","componente_patio_troncal":"TRONCAL","estado_actual":1,"st_area(shape)":8765.2615122700008,"st_length(shape)":414.98624273995671}},{"type":"Feature","id":15,"geometry":{"type":"Polygon","coordinates":[[[-74.080784969182318,4.7657412966263504],[-74.08039949694772,4.7652951477454959],[-74.080213898352952,4.7652951475967722],[-74.08005328531371,4.765366531476305],[-74.079849841010073,4.7654950224398043],[-74.079671381799173,4.7652915784105261],[-74.079335877714755,4.7656163747363571],[-74.079535752718641,4.7658483722748803],[-74.079403692738509,4.7659768637946733],[-74.07958929047588,4.7662302762432454],[-74.07989267179444,4.766615748680513],[-74.08028171328786,4.7662017221198019],[-74.080784969182318,4.7657412966263504]]]},"properties":{"objectid":15,"id_patio_troncal":"17","id_anterior_patio_troncal":"0","nombre_patio_troncal":"COTA","cod_patio_troncal":" ","area_patio_troncal":13268.17439756,"perimetro_patio_troncal":495.61158102999997,"zona_sitp_patio_troncal":null,"tipo_patio_troncal":"ALIMENTACION","direccion_patio_troncal":"Kilómetro 2 vía Cota, estacion de servicio Texaco","coordenada_x_patio_troncal":999721.82791401003,"coordenada_y_patio_troncal":1018759.3083294,"latitud_patio_troncal":4.7658425200000005,"longitud_patio_troncal":-74.08001539,"operador_patio_troncal":"ALCAPITAL FASE 2","capacidad_patio_troncal":"0","componente_patio_troncal":"ALIMENTACION","estado_actual":1,"st_area(shape)":13268.174397549999,"st_length(shape)":495.61158103297407}},{"type":"Feature","id":16,"geometry":{"type":"Polygon","coordinates":[[[-74.05152486565558,4.7603577139122342],[-74.051234897141654,4.7599408400551591],[-74.050669219101025,4.7597466147156169],[-74.050374496371887,4.7601374337266282],[-74.050006092572289,4.7606182598443274],[-74.049668587097003,4.7610422386626885],[-74.049585399313699,4.7611725115393853],[-74.0494546760536,4.7613880531743371],[-74.049499834624285,4.7617007082370897],[-74.049378618354808,4.7618499292851579],[-74.049133808331817,4.7621341600352771],[-74.049613921358628,4.7625202408931937],[-74.049594907032912,4.7625439266291316],[-74.049723253438117,4.7626434073785804],[-74.049846847355425,4.7625249780148513],[-74.050234264743366,4.7620441536738127],[-74.050747653386722,4.7613667359074414],[-74.05152486565558,4.7603577139122342]]]},"properties":{"objectid":16,"id_patio_troncal":"11","id_anterior_patio_troncal":"0","nombre_patio_troncal":"NORTE","cod_patio_troncal":" ","area_patio_troncal":35605.829165310002,"perimetro_patio_troncal":858.62889012999995,"zona_sitp_patio_troncal":null,"tipo_patio_troncal":"TRONCAL","direccion_patio_troncal":"Av Calle 183 # 51 - 62","coordenada_x_patio_troncal":1003016.4859825,"coordenada_y_patio_troncal":1018236.4822891899,"latitud_patio_troncal":4.7611140399999998,"longitud_patio_troncal":-74.050317159999992,"operador_patio_troncal":"SI18 NORTE SAS","capacidad_patio_troncal":"0","componente_patio_troncal":"TRONCAL","estado_actual":1,"st_area(shape)":35605.829165290001,"st_length(shape)":858.62889013276754}},{"type":"Feature","id":17,"geometry":{"type":"Polygon","coordinates":[[[-74.126513661508852,4.6748826648534667],[-74.126153521344321,4.674105076585918],[-74.125867369617055,4.6742438707236396],[-74.125762437618903,4.6741529569364015],[-74.12566228263627,4.6741697125302162],[-74.125488202897984,4.6741888659764284],[-74.125259274020038,4.6741936663117212],[-74.125047036460174,4.6741625770385458],[-74.124853874550396,4.674114736803471],[-74.124689327579091,4.6740501458842409],[-74.124503317472147,4.6739616301613465],[-74.124360230230181,4.6738683259175096],[-74.123270521574682,4.6752082852569377],[-74.123213293911533,4.6752776757071448],[-74.123206141455597,4.6753087807812292],[-74.12325385819824,4.6756628905451549],[-74.123148969524507,4.6762395272072101],[-74.123220520841599,4.6764094014769952],[-74.123435136472978,4.6763136808169783],[-74.12346136792624,4.6763160718976939],[-74.123528139640769,4.6763184603150432],[-74.123964522908722,4.6761198416727892],[-74.124012214685337,4.6760887339017225],[-74.12404321294278,4.6760480560319806],[-74.125094824585858,4.6755622765912745],[-74.125998588624256,4.6751458925401437],[-74.126015279840047,4.6751219651817939],[-74.126086815578432,4.6750573582114034],[-74.126098740517193,4.6750693204859699],[-74.126513661508852,4.6748826648534667]]]},"properties":{"objectid":17,"id_patio_troncal":"1","id_anterior_patio_troncal":"0","nombre_patio_troncal":"DORADO","cod_patio_troncal":"1","area_patio_troncal":54604.208215960003,"perimetro_patio_troncal":1044.83319764,"zona_sitp_patio_troncal":null,"tipo_patio_troncal":"TRONCAL","direccion_patio_troncal":"Transv 94 # 24 - 62","coordenada_x_patio_troncal":994770.39667528996,"coordenada_y_patio_troncal":1008717.50287955,"latitud_patio_troncal":4.6750321000000001,"longitud_patio_troncal":-74.124642010000002,"operador_patio_troncal":"GMOVIL SAS","capacidad_patio_troncal":"0","componente_patio_troncal":"TRONCAL","estado_actual":1,"st_area(shape)":54604.208215949999,"st_length(shape)":1044.8331976407439}},{"type":"Feature","id":18,"geometry":{"type":"Polygon","coordinates":[[[-74.110438604000805,4.7078649713076368],[-74.111203588723654,4.7063709434365855],[-74.111356784366535,4.7063423137447655],[-74.111597044449056,4.7056674846381954],[-74.112033418417582,4.7048419979398064],[-74.111489674389162,4.704540550031524],[-74.110044597134532,4.7066509398427883],[-74.109829981896723,4.7069954912622247],[-74.109794213932517,4.7070672723844922],[-74.109858610877524,4.7072467185001177],[-74.110438604000805,4.7078649713076368]]]},"properties":{"objectid":18,"id_patio_troncal":" ","id_anterior_patio_troncal":" ","nombre_patio_troncal":"TEMPORAL CALLE 80","cod_patio_troncal":" ","area_patio_troncal":32449.825243920001,"perimetro_patio_troncal":906.43843546999994,"zona_sitp_patio_troncal":null,"tipo_patio_troncal":"TRONCAL","direccion_patio_troncal":"AC 80 96 91\r\nAC 80 96 91AC 80 96 91","coordenada_x_patio_troncal":996298.05789071997,"coordenada_y_patio_troncal":1012163.00116002,"latitud_patio_troncal":4.7061908199999998,"longitud_patio_troncal":-74.110874769999995,"operador_patio_troncal":"SI-18 CALLE 80 S.A.S.","capacidad_patio_troncal":null,"componente_patio_troncal":null,"estado_actual":null,"st_area(shape)":32449.825243834999,"st_length(shape)":906.43843547474478}},{"type":"Feature","id":19,"geometry":{"type":"Polygon","coordinates":[[[-74.167644263365418,4.644321068244631],[-74.167530176967944,4.6441907737228858],[-74.167470757034366,4.6440818003342965],[-74.167418468126826,4.6440178370992431],[-74.167275859764374,4.6441362871683616],[-74.167278236666561,4.6441457631181544],[-74.167038180751888,4.6443400201829128],[-74.16716652732255,4.6444750524547098],[-74.167192671775922,4.6445176945262752],[-74.167408960658321,4.6447853912310562],[-74.167468380647563,4.6448517228437192],[-74.167679915227396,4.6446764172645745],[-74.167675162008948,4.6446550960790542],[-74.167630003159744,4.6445792882175487],[-74.167603858073832,4.6444963736737694],[-74.167615741698071,4.6444016141551643],[-74.167644263365418,4.644321068244631]]]},"properties":{"objectid":19,"id_patio_troncal":"5","id_anterior_patio_troncal":"0","nombre_patio_troncal":"CALANDAIMA I","cod_patio_troncal":" ","area_patio_troncal":3412.8620083800001,"perimetro_patio_troncal":244.29972541999999,"zona_sitp_patio_troncal":null,"tipo_patio_troncal":"ALIMENTACION","direccion_patio_troncal":"Calle 34 A sur No 91 – 34.","coordenada_x_patio_troncal":990025.93286460999,"coordenada_y_patio_troncal":1005333.9589367099,"latitud_patio_troncal":4.6444302400000002,"longitud_patio_troncal":-74.167399649999993,"operador_patio_troncal":"ESTE ES MI BUS TINTAL","capacidad_patio_troncal":"0","componente_patio_troncal":"ALIMENTACION","estado_actual":1,"st_area(shape)":3412.8620083549999,"st_length(shape)":244.2997254213295}},{"type":"Feature","id":20,"geometry":{"type":"Polygon","coordinates":[[[-74.043978825902698,4.7690781060479939],[-74.044092454515251,4.7691377162381565],[-74.044185253248315,4.7691972024137348],[-74.044501722298861,4.7693637647345],[-74.045643863353462,4.7696421615105047],[-74.046954946495561,4.7700538089764271],[-74.047816311017513,4.7702893752058317],[-74.047982873727562,4.7699348354356204],[-74.048254132274437,4.7692995192246572],[-74.047556949524406,4.7691139218523686],[-74.047506981485057,4.7690282610395016],[-74.047278552596495,4.7689544975891645],[-74.046462397993693,4.768711792327764],[-74.046160206096062,4.7686285109594406],[-74.045279806097739,4.7683596325377113],[-74.044156699696558,4.7680265074515038],[-74.043994896988181,4.7689901892448416],[-74.043978825902698,4.7690781060479939]]]},"properties":{"objectid":20,"id_patio_troncal":"21","id_anterior_patio_troncal":"0","nombre_patio_troncal":"PATIO 191","cod_patio_troncal":" ","area_patio_troncal":57479.311525540004,"perimetro_patio_troncal":1164.4870690800001,"zona_sitp_patio_troncal":null,"tipo_patio_troncal":"ALIMENTACION","direccion_patio_troncal":"Autopista norte Calle 191","coordenada_x_patio_troncal":1003491.42046552,"coordenada_y_patio_troncal":1019128.34576936,"latitud_patio_troncal":4.76917904,"longitud_patio_troncal":-74.046035720000006,"operador_patio_troncal":"CONSORCIO EXPRESS","capacidad_patio_troncal":"0","componente_patio_troncal":"ALMENTACION","estado_actual":1,"st_area(shape)":57479.311525659999,"st_length(shape)":1164.4870690860362}},{"type":"Feature","id":21,"geometry":{"type":"Polygon","coordinates":[[[-74.109430339933752,4.7103953149487268],[-74.109323264666173,4.7103405875122029],[-74.109494585314465,4.7100146019028326],[-74.109723014199133,4.7095625042226139],[-74.109832469115887,4.7093483526517685],[-74.109932406192314,4.7091223035245493],[-74.110068036014809,4.7089319466584572],[-74.110260772505924,4.7086416528914299],[-74.110148937969569,4.7085393356817873],[-74.110103727518251,4.708494126011737],[-74.109784879576566,4.708296630935398],[-74.109699219069554,4.7081943142454623],[-74.109504103479779,4.7080229930225261],[-74.109397027521737,4.7079254348437978],[-74.109230465750286,4.7077398368238308],[-74.109047964147578,4.7078588864389772],[-74.109159673025417,4.7081384021149741],[-74.109141609163004,4.7085334354845969],[-74.108808857544389,4.7091848481072374],[-74.108673672020046,4.7095648833391124],[-74.108630841677211,4.7098361424257424],[-74.108623703204387,4.7101026414426084],[-74.108495212068775,4.7104310068798716],[-74.108461899354438,4.7104690788303598],[-74.109430339933752,4.7103953149487268]]]},"properties":{"objectid":21,"id_patio_troncal":"20","id_anterior_patio_troncal":"0","nombre_patio_troncal":"TEMPORAL NORTE II","cod_patio_troncal":" ","area_patio_troncal":28574.247480590002,"perimetro_patio_troncal":820.15813281999999,"zona_sitp_patio_troncal":null,"tipo_patio_troncal":"TRONCAL","direccion_patio_troncal":" AV 80 # 96-00","coordenada_x_patio_troncal":996470.83617456991,"coordenada_y_patio_troncal":1012497.7673455799,"latitud_patio_troncal":4.7092182100000004,"longitud_patio_troncal":-74.109317600000011,"operador_patio_troncal":"SI18 NORTE SAS","capacidad_patio_troncal":"0","componente_patio_troncal":"TRONCAL","estado_actual":1,"st_area(shape)":28574.247480589998,"st_length(shape)":820.15813281951012}},{"type":"Feature","id":22,"geometry":{"type":"Polygon","coordinates":[[[-74.142522902387725,4.6588296371642448],[-74.142409619266459,4.6586783124253204],[-74.142194977711455,4.6584031762975755],[-74.141887327218484,4.6580227725828314],[-74.141152781485019,4.6570968812464493],[-74.141097939224125,4.6571375620286197],[-74.14065435020315,4.6565729351337239],[-74.140499360886082,4.6566973665870917],[-74.140599527304076,4.6568409175795038],[-74.140218016545617,4.6571519969439938],[-74.141052725086055,4.658180763465305],[-74.140242010146991,4.6588196754361793],[-74.140459022228058,4.6589416816895763],[-74.140606875226808,4.6590134479633507],[-74.140642647033729,4.6590469421664054],[-74.140592574983316,4.6590971927832694],[-74.140654579414218,4.6591426477350488],[-74.140873973818387,4.6592455121341692],[-74.141119599805378,4.6593579443926147],[-74.141188757269092,4.659398613045628],[-74.141403384918419,4.6595206192168686],[-74.141530014128293,4.6595834146674662],[-74.141549327375031,4.659561879502597],[-74.141590100893509,4.6595209612309034],[-74.141626583202381,4.6594972704345219],[-74.141645897540243,4.6594778884265979],[-74.141669502449602,4.659454198802826],[-74.141705985067574,4.6594240476189315],[-74.14173602691146,4.6593809771591186],[-74.141783239105365,4.6593400582880022],[-74.141858350521943,4.6592926773812957],[-74.141931554651734,4.6592531921632192],[-74.142007859479989,4.6592172949511852],[-74.142057933211134,4.6591766154411163],[-74.142162850794548,4.6591215740761962],[-74.142284457797842,4.6590234643469381],[-74.142332146512103,4.6589803922357138],[-74.142522902387725,4.6588296371642448]]]},"properties":{"objectid":22,"id_patio_troncal":"2","id_anterior_patio_troncal":"0","nombre_patio_troncal":"TINTAL","cod_patio_troncal":"2","area_patio_troncal":38806.95172361,"perimetro_patio_troncal":1004.30522538,"zona_sitp_patio_troncal":null,"tipo_patio_troncal":"ALIMENTACION","direccion_patio_troncal":"Avenida ciudad de cali No 13C -31","coordenada_x_patio_troncal":992924.28084840998,"coordenada_y_patio_troncal":1006867.24342381,"latitud_patio_troncal":4.6582987200000003,"longitud_patio_troncal":-74.141279420000004,"operador_patio_troncal":"GMOVIL SAS","capacidad_patio_troncal":"287","componente_patio_troncal":"ALIMENTACION","estado_actual":1,"st_area(shape)":38806.951723495004,"st_length(shape)":1004.3052253842959}},{"type":"Feature","id":23,"geometry":{"type":"Polygon","coordinates":[[[-74.153293545856513,4.6870940973341728],[-74.152307043552653,4.6878377763502934],[-74.152786896368852,4.6883358149730148],[-74.152904097757087,4.6884574588942352],[-74.152934118337598,4.6884886172041327],[-74.152940406570266,4.6884950651457471],[-74.153364368017648,4.6881642685831419],[-74.153834983414754,4.6877990161533631],[-74.153520408104967,4.6873877069439889],[-74.153508574951047,4.6873722355204377],[-74.153294996842959,4.6870929803563701],[-74.153293545856513,4.6870940973341728]]]},"properties":{"objectid":23,"id_patio_troncal":" ","id_anterior_patio_troncal":"0","nombre_patio_troncal":"REFUGIO","cod_patio_troncal":" ","area_patio_troncal":13052.74634211,"perimetro_patio_troncal":462.21992996,"zona_sitp_patio_troncal":null,"tipo_patio_troncal":"ALIMENTACION","direccion_patio_troncal":"Calle 19 A Bis # 116-50","coordenada_x_patio_troncal":991614.37158713001,"coordenada_y_patio_troncal":1010129.93814432,"latitud_patio_troncal":4.68780237,"longitud_patio_troncal":-74.153088420000003,"operador_patio_troncal":null,"capacidad_patio_troncal":null,"componente_patio_troncal":null,"estado_actual":null,"st_area(shape)":13052.74634222,"st_length(shape)":462.21992995688731}},{"type":"Feature","id":24,"geometry":{"type":"Polygon","coordinates":[[[-74.045935516045716,4.7978898398047951],[-74.046021081185188,4.7971982460375688],[-74.044497553644945,4.7970821914509232],[-74.04443813385214,4.7977690477236754],[-74.045935516045716,4.7978898398047951]]]},"properties":{"objectid":24,"id_patio_troncal":"12","id_anterior_patio_troncal":"0","nombre_patio_troncal":"CIPRES","cod_patio_troncal":" ","area_patio_troncal":12875.8928062,"perimetro_patio_troncal":489.44273432,"zona_sitp_patio_troncal":null,"tipo_patio_troncal":"ALIMENTACION","direccion_patio_troncal":"Calle 221 # 53 - 17","coordenada_x_patio_troncal":1003581.27771226,"coordenada_y_patio_troncal":1022258.3653340299,"latitud_patio_troncal":4.7974839600000001,"longitud_patio_troncal":-74.045224399999995,"operador_patio_troncal":"MASIVO CAPITAL NORTE","capacidad_patio_troncal":"0","componente_patio_troncal":"ALIMENTACION","estado_actual":1,"st_area(shape)":12875.892806305001,"st_length(shape)":489.44273432572726}}]}